{
  "type": "FeatureCollection",
  "features": [
    {
      "type": "Feature",
      "properties": {
        "norad_id": 52912,
        "name": "GAOFEN-12 03",
        "group": "resource",
        "lat": -33.71843756659598,
        "lon": 62.288746752633095,
        "alt_km": 637.8727391975217,
        "timestamp": "2025-12-26T12:57:38.924874+00:00",
        "meta_object_name": "GAOFEN-12 03",
        "meta_object_id": "2022-069A",
        "meta_epoch": "2025-12-26T07:07:39.912672",
        "meta_mean_motion": 14.7963966,
        "meta_eccentricity": 0.00017546,
        "meta_inclination": 97.8475,
        "meta_ra_of_asc_node": 247.3327,
        "meta_arg_of_pericenter": 46.8796,
        "meta_mean_anomaly": 313.2563,
        "meta_ephemeris_type": 0,
        "meta_classification_type": "U",
        "meta_norad_cat_id": 52912,
        "meta_element_set_no": 999,
        "meta_rev_at_epoch": 18904,
        "meta_bstar": 0.00012354612,
        "meta_mean_motion_dot": 8.76e-06,
        "meta_mean_motion_ddot": 0,
        "tle_line1": "1 52912U 22069A   25360.29698973  .00000876  00000+0  12355-3 0  9996",
        "tle_line2": "2 52912  97.8475 247.3327 0001754  46.8796 313.2563 14.79639660189042"
      },
      "geometry": {
        "type": "Point",
        "coordinates": [
          62.288746752633095,
          -33.71843756659598
        ]
      }
    },
    {
      "type": "Feature",
      "properties": {
        "norad_id": 54754,
        "name": "SWOT",
        "group": "resource",
        "lat": -32.60592869508627,
        "lon": 96.44439837797415,
        "alt_km": 899.3223282776507,
        "timestamp": "2025-12-26T12:57:38.924884+00:00",
        "meta_object_name": "SWOT",
        "meta_object_id": "2022-173A",
        "meta_epoch": "2025-12-26T06:48:00.754848",
        "meta_mean_motion": 14.00168933,
        "meta_eccentricity": 4.272e-05,
        "meta_inclination": 77.6107,
        "meta_ra_of_asc_node": 268.708,
        "meta_arg_of_pericenter": 81.2252,
        "meta_mean_anomaly": 278.8948,
        "meta_ephemeris_type": 0,
        "meta_classification_type": "U",
        "meta_norad_cat_id": 54754,
        "meta_element_set_no": 999,
        "meta_rev_at_epoch": 15495,
        "meta_bstar": 9.2266313e-05,
        "meta_mean_motion_dot": 1.34e-06,
        "meta_mean_motion_ddot": 0,
        "tle_line1": "1 54754U 22173A   25360.28334207  .00000134  00000+0  92266-4 0  9991",
        "tle_line2": "2 54754  77.6107 268.7080 0000427  81.2252 278.8948 14.00168933154954"
      },
      "geometry": {
        "type": "Point",
        "coordinates": [
          96.44439837797415,
          -32.60592869508627
        ]
      }
    },
    {
      "type": "Feature",
      "properties": {
        "norad_id": 57654,
        "name": "GAOFEN-12 04",
        "group": "resource",
        "lat": 27.932354603758295,
        "lon": -88.14045782770346,
        "alt_km": 628.4476714179455,
        "timestamp": "2025-12-26T12:57:38.924894+00:00",
        "meta_object_name": "GAOFEN-12 04",
        "meta_object_id": "2023-123A",
        "meta_epoch": "2025-12-26T06:20:31.531776",
        "meta_mean_motion": 14.79738603,
        "meta_eccentricity": 0.00012024,
        "meta_inclination": 97.9129,
        "meta_ra_of_asc_node": 275.8169,
        "meta_arg_of_pericenter": 80.4964,
        "meta_mean_anomaly": 279.6383,
        "meta_ephemeris_type": 0,
        "meta_classification_type": "U",
        "meta_norad_cat_id": 57654,
        "meta_element_set_no": 999,
        "meta_rev_at_epoch": 12705,
        "meta_bstar": 0.00020213503,
        "meta_mean_motion_dot": 1.468e-05,
        "meta_mean_motion_ddot": 0,
        "tle_line1": "1 57654U 23123A   25360.26425384  .00001468  00000+0  20214-3 0  9998",
        "tle_line2": "2 57654  97.9129 275.8169 0001202  80.4964 279.6383 14.79738603127051"
      },
      "geometry": {
        "type": "Point",
        "coordinates": [
          -88.14045782770346,
          27.932354603758295
        ]
      }
    },
    {
      "type": "Feature",
      "properties": {
        "norad_id": 59065,
        "name": "PARS 1",
        "group": "resource",
        "lat": -50.207823063369496,
        "lon": 142.7113463578568,
        "alt_km": 456.53191197656815,
        "timestamp": "2025-12-26T12:57:38.924904+00:00",
        "meta_object_name": "PARS 1",
        "meta_object_id": "2024-039Q",
        "meta_epoch": "2025-12-26T07:17:18.218976",
        "meta_mean_motion": 15.41284024,
        "meta_eccentricity": 0.00114154,
        "meta_inclination": 97.4655,
        "meta_ra_of_asc_node": 331.5278,
        "meta_arg_of_pericenter": 30.5096,
        "meta_mean_anomaly": 329.6812,
        "meta_ephemeris_type": 0,
        "meta_classification_type": "U",
        "meta_norad_cat_id": 59065,
        "meta_element_set_no": 999,
        "meta_rev_at_epoch": 10197,
        "meta_bstar": 0.00030148506,
        "meta_mean_motion_dot": 0.00012494,
        "meta_mean_motion_ddot": 0,
        "tle_line1": "1 59065U 24039Q   25360.30368309  .00012494  00000+0  30149-3 0  9990",
        "tle_line2": "2 59065  97.4655 331.5278 0011415  30.5096 329.6812 15.41284024101977"
      },
      "geometry": {
        "type": "Point",
        "coordinates": [
          142.7113463578568,
          -50.207823063369496
        ]
      }
    },
    {
      "type": "Feature",
      "properties": {
        "norad_id": 59371,
        "name": "RESURS-P 4",
        "group": "resource",
        "lat": -71.75967467942162,
        "lon": -30.66604499338386,
        "alt_km": 477.0672490212246,
        "timestamp": "2025-12-26T12:57:38.924914+00:00",
        "meta_object_name": "RESURS-P 4",
        "meta_object_id": "2024-061A",
        "meta_epoch": "2025-12-26T07:00:37.672416",
        "meta_mean_motion": 15.32204641,
        "meta_eccentricity": 7.967e-05,
        "meta_inclination": 97.2563,
        "meta_ra_of_asc_node": 306.3463,
        "meta_arg_of_pericenter": 88.0684,
        "meta_mean_anomaly": 272.0649,
        "meta_ephemeris_type": 0,
        "meta_classification_type": "U",
        "meta_norad_cat_id": 59371,
        "meta_element_set_no": 999,
        "meta_rev_at_epoch": 9728,
        "meta_bstar": 0.00013792575,
        "meta_mean_motion_dot": 4.212e-05,
        "meta_mean_motion_ddot": 0,
        "tle_line1": "1 59371U 24061A   25360.29210269  .00004212  00000+0  13793-3 0  9999",
        "tle_line2": "2 59371  97.2563 306.3463 0000796  88.0684 272.0649 15.32204641 97284"
      },
      "geometry": {
        "type": "Point",
        "coordinates": [
          -30.66604499338386,
          -71.75967467942162
        ]
      }
    },
    {
      "type": "Feature",
      "properties": {
        "norad_id": 59625,
        "name": "LEGION 1",
        "group": "resource",
        "lat": 78.65178035629573,
        "lon": -63.78128937926117,
        "alt_km": 511.0232052961992,
        "timestamp": "2025-12-26T12:57:38.924924+00:00",
        "meta_object_name": "LEGION 1",
        "meta_object_id": "2024-081A",
        "meta_epoch": "2025-12-26T06:11:38.073120",
        "meta_mean_motion": 15.16611477,
        "meta_eccentricity": 0.00036322,
        "meta_inclination": 97.5192,
        "meta_ra_of_asc_node": 74.7811,
        "meta_arg_of_pericenter": 253.9173,
        "meta_mean_anomaly": 106.166,
        "meta_ephemeris_type": 0,
        "meta_classification_type": "U",
        "meta_norad_cat_id": 59625,
        "meta_element_set_no": 999,
        "meta_rev_at_epoch": 9132,
        "meta_bstar": 0.00025134291,
        "meta_mean_motion_dot": 4.845e-05,
        "meta_mean_motion_ddot": 0,
        "tle_line1": "1 59625U 24081A   25360.25807955  .00004845  00000+0  25134-3 0  9997",
        "tle_line2": "2 59625  97.5192  74.7811 0003632 253.9173 106.1660 15.16611477 91328"
      },
      "geometry": {
        "type": "Point",
        "coordinates": [
          -63.78128937926117,
          78.65178035629573
        ]
      }
    },
    {
      "type": "Feature",
      "properties": {
        "norad_id": 59626,
        "name": "LEGION 2",
        "group": "resource",
        "lat": -78.32997238604865,
        "lon": 114.90572717895452,
        "alt_km": 520.526065088281,
        "timestamp": "2025-12-26T12:57:38.924934+00:00",
        "meta_object_name": "LEGION 2",
        "meta_object_id": "2024-081B",
        "meta_epoch": "2025-12-26T05:24:01.503360",
        "meta_mean_motion": 15.16624959,
        "meta_eccentricity": 0.00058254,
        "meta_inclination": 97.5196,
        "meta_ra_of_asc_node": 74.8363,
        "meta_arg_of_pericenter": 235.5627,
        "meta_mean_anomaly": 124.5056,
        "meta_ephemeris_type": 0,
        "meta_classification_type": "U",
        "meta_norad_cat_id": 59626,
        "meta_element_set_no": 999,
        "meta_rev_at_epoch": 9132,
        "meta_bstar": 0.0002962573,
        "meta_mean_motion_dot": 5.727e-05,
        "meta_mean_motion_ddot": 0,
        "tle_line1": "1 59626U 24081B   25360.22501740  .00005727  00000+0  29626-3 0  9998",
        "tle_line2": "2 59626  97.5196  74.8363 0005825 235.5627 124.5056 15.16624959 91324"
      },
      "geometry": {
        "type": "Point",
        "coordinates": [
          114.90572717895452,
          -78.32997238604865
        ]
      }
    }
  ]
}